     2.11           GLONASS NAV DATA                        RINEX VERSION / TYPE
cnvtToRINEX 2.19.0  convertToRINEX OPR  09-Jul-14 17:49 UTC PGM / RUN BY / DATE 
----------------------------------------------------------- COMMENT             
  2014     1    20    0.185333192348D-06                    CORR TO SYSTEM TIME 
    16                                                      LEAP SECONDS        
                                                            END OF HEADER       
 4 14 01 20 20 45  0.0 0.584283843637D-04 0.909494701773D-12 0.753000000000D+05
   -0.180719291992D+05 0.227107906342D+01 0.931322574615D-09 0.000000000000D+00
   -0.983264648438D+03-0.952231407166D+00 0.000000000000D+00 0.600000000000D+01
    0.179829565430D+05 0.223096847534D+01-0.186264514923D-08 0.000000000000D+00
13 14 01 20 21 15  0.0-0.422798097134D-03-0.909494701773D-12 0.756000000000D+05
    0.548649023438D+04-0.882835388184D-01 0.000000000000D+00 0.000000000000D+00
   -0.205433906250D+05 0.193828201294D+01-0.186264514923D-08-0.200000000000D+01
    0.140793496094D+05 0.285977649689D+01-0.186264514923D-08 0.000000000000D+00
 3 14 01 20 21 15  0.0 0.741053372622D-05 0.909494701773D-12 0.756000000000D+05
    0.282839257813D+04 0.241686725616D+01 0.000000000000D+00 0.000000000000D+00
   -0.138229775391D+05-0.161432933807D+01-0.931322574615D-09 0.500000000000D+01
    0.212772724609D+05-0.137322330475D+01-0.186264514923D-08 0.000000000000D+00
 2 14 01 20 21 15  0.0 0.537466257811D-04 0.181898940355D-11 0.756000000000D+05
    0.176627016602D+05 0.908990859985D+00-0.931322574615D-09 0.000000000000D+00
   -0.162366074219D+05-0.772210121155D+00-0.931322574615D-09-0.400000000000D+01
    0.866213427734D+04-0.331380271912D+01 0.000000000000D+00 0.000000000000D+00
12 14 01 20 21 15  0.0-0.510355457664D-04 0.909494701773D-12 0.756000000000D+05
    0.105173012695D+05 0.779476165771D-01 0.000000000000D+00 0.000000000000D+00
   -0.369177832031D+04 0.314575576782D+01 0.000000000000D+00-0.100000000000D+01
    0.229322866211D+05 0.455914497375D+00-0.186264514923D-08 0.000000000000D+00
14 14 01 20 21 15  0.0 0.439248979092D-04 0.454747350886D-11 0.756000000000D+05
   -0.223752929688D+04-0.263790130615D+00-0.931322574615D-09 0.000000000000D+00
   -0.253055976563D+05-0.356869697571D+00-0.372529029846D-08-0.700000000000D+01
   -0.269745068359D+04 0.357883453369D+01 0.000000000000D+00 0.000000000000D+00
 4 14 01 20 21 15  0.0 0.584311783314D-04 0.909494701773D-12 0.756000000000D+05
   -0.137493642578D+05 0.248277378082D+01 0.931322574615D-09 0.000000000000D+00
   -0.320670166016D+04-0.151506328583D+01 0.000000000000D+00 0.600000000000D+01
    0.212521953125D+05 0.137797641754D+01-0.186264514923D-08 0.000000000000D+00
13 14 01 20 21 45  0.0-0.422800891101D-03-0.909494701773D-12 0.774000000000D+05
    0.567113867188D+04 0.318725585938D+00 0.000000000000D+00 0.000000000000D+00
   -0.164780903320D+05 0.253800296783D+01-0.931322574615D-09-0.200000000000D+01
    0.186156577148D+05 0.214778804779D+01-0.186264514923D-08 0.000000000000D+00
 3 14 01 20 21 45  0.0 0.741239637136D-05 0.909494701773D-12 0.774000000000D+05
    0.666203515625D+04 0.181923103333D+01-0.931322574615D-09 0.000000000000D+00
   -0.168084575195D+05-0.165982818604D+01-0.931322574615D-09 0.500000000000D+01
    0.180168437500D+05-0.222611618042D+01-0.186264514923D-08 0.000000000000D+00
 2 14 01 20 21 45  0.0 0.537494197488D-04 0.909494701773D-12 0.774000000000D+05
    0.185973242188D+05 0.142978668213D+00-0.186264514923D-08 0.000000000000D+00
   -0.172749633789D+05-0.341938018799D+00-0.931322574615D-09-0.400000000000D+01
    0.243936035156D+04-0.355550098419D+01 0.000000000000D+00 0.000000000000D+00
14 14 01 20 21 45  0.0 0.439332798123D-04 0.454747350886D-11 0.774000000000D+05
   -0.265245849609D+04-0.155013084412D+00-0.931322574615D-09 0.000000000000D+00
   -0.251246474609D+05 0.552219390869D+00-0.279396772385D-08-0.700000000000D+01
    0.376540771484D+04 0.355568313599D+01-0.931322574615D-09 0.000000000000D+00
12 14 01 20 21 45  0.0-0.510336831212D-04 0.909494701773D-12 0.774000000000D+05
    0.110799062500D+05 0.541445732117D+00 0.000000000000D+00 0.000000000000D+00
    0.196962597656D+04 0.309244632721D+01 0.931322574615D-09-0.100000000000D+01
    0.228540698242D+05-0.542710304260D+00-0.186264514923D-08 0.000000000000D+00
 4 14 01 20 21 45  0.0 0.584339722991D-04 0.909494701773D-12 0.774000000000D+05
   -0.930841894531D+04 0.240521430969D+01 0.000000000000D+00 0.000000000000D+00
   -0.639291308594D+04-0.200388240814D+01-0.931322574615D-09 0.600000000000D+01
    0.228797109375D+05 0.418657302856D+00-0.279396772385D-08 0.000000000000D+00
 3 14 01 20 22 15  0.0 0.741425901651D-05 0.909494701773D-12 0.792000000000D+05
    0.932547021484D+04 0.113500881195D+01-0.931322574615D-09 0.000000000000D+00
   -0.196353325195D+05-0.143513393402D+01-0.931322574615D-09 0.500000000000D+01
    0.133662041016D+05-0.290786361694D+01-0.931322574615D-09 0.000000000000D+00
13 14 01 20 22 15  0.0-0.422803685069D-03-0.909494701773D-12 0.792000000000D+05
    0.669592236328D+04 0.828405380249D+00 0.000000000000D+00 0.000000000000D+00
   -0.115724116211D+05 0.286278247833D+01 0.000000000000D+00-0.200000000000D+01
    0.217113291016D+05 0.126947212219D+01-0.186264514923D-08 0.000000000000D+00
14 14 01 20 22 15  0.0 0.439425930381D-04 0.454747350886D-11 0.792000000000D+05
   -0.265236572266D+04 0.190959930420D+00-0.931322574615D-09 0.000000000000D+00
   -0.233735527344D+05 0.136858177185D+01-0.186264514923D-08-0.700000000000D+01
    0.993821923828D+04 0.325858497620D+01-0.931322574615D-09 0.000000000000D+00
 4 14 01 20 22 15  0.0 0.584358349442D-04 0.909494701773D-12 0.792000000000D+05
   -0.524233691406D+04 0.207605552673D+01 0.000000000000D+00 0.000000000000D+00
   -0.103151494141D+05-0.231768989563D+01-0.931322574615D-09 0.600000000000D+01
    0.227399257813D+05-0.572970390320D+00-0.186264514923D-08 0.000000000000D+00
 2 14 01 20 22 15  0.0 0.537531450391D-04 0.909494701773D-12 0.792000000000D+05
    0.182568046875D+05-0.491585731506D+00-0.186264514923D-08 0.000000000000D+00
   -0.173430166016D+05 0.294664382935D+00 0.000000000000D+00-0.400000000000D+01
   -0.397216308594D+04-0.352207565308D+01 0.931322574615D-09 0.000000000000D+00
12 14 01 20 22 15  0.0-0.510197132826D-04 0.000000000000D+00 0.792000000000D+05
    0.124135244141D+05 0.917119026184D+00 0.931322574615D-09 0.000000000000D+00
    0.726049755859D+04 0.273979377747D+01 0.186264514923D-08-0.100000000000D+01
    0.210023242188D+05-0.150175285339D+01-0.931322574615D-09 0.000000000000D+00
15 14 01 20 22 15  0.0 0.149914994836D-04 0.000000000000D+00 0.807300000000D+05
   -0.106276914063D+05-0.550957679749D+00-0.186264514923D-08 0.000000000000D+00
   -0.216073344727D+05-0.101721477509D+01-0.372529029846D-08 0.000000000000D+00
   -0.824185302734D+04 0.338159942627D+01 0.000000000000D+00 0.000000000000D+00
